[
    {
        "CCSDS_OMM_VERS": "3.0",
        "COMMENT": "GENERATED VIA SPACE-TRACK.ORG API",
        "CREATION_DATE": "2025-05-04T02:26:54",
        "ORIGINATOR": "18 SPCS",
        "OBJECT_NAME": "BEIDOU 3 G3",
        "OBJECT_ID": "2020-040A",
        "CENTER_NAME": "EARTH",
        "REF_FRAME": "TEME",
        "TIME_SYSTEM": "UTC",
        "MEAN_ELEMENT_THEORY": "SGP4",
        "EPOCH": "2025-05-03T21:43:31.066752",
        "MEAN_MOTION": "1.00269493",
        "ECCENTRICITY": "0.00023940",
        "INCLINATION": "1.4599",
        "RA_OF_ASC_NODE": "62.9563",
        "ARG_OF_PERICENTER": "320.2501",
        "MEAN_ANOMALY": "275.2600",
        "EPHEMERIS_TYPE": "0",
        "CLASSIFICATION_TYPE": "U",
        "NORAD_CAT_ID": "45807",
        "ELEMENT_SET_NO": "999",
        "REV_AT_EPOCH": "1796",
        "BSTAR": "0.00000000000000",
        "MEAN_MOTION_DOT": "-0.00000364",
        "MEAN_MOTION_DDOT": "0.0000000000000",
        "SEMIMAJOR_AXIS": "42165.375",
        "PERIOD": "1436.130",
        "APOAPSIS": "35797.334",
        "PERIAPSIS": "35777.145",
        "OBJECT_TYPE": "PAYLOAD",
        "RCS_SIZE": "LARGE",
        "COUNTRY_CODE": "PRC",
        "LAUNCH_DATE": "2020-06-23",
        "SITE": "XSC",
        "DECAY_DATE": null,
        "FILE": "4718307",
        "GP_ID": "286800779",
        "TLE_LINE0": "0 BEIDOU 3 G3",
        "TLE_LINE1": "1 45807U 20040A   25123.90522068 -.00000364  00000-0  00000-0 0  9999",
        "TLE_LINE2": "2 45807   1.4599  62.9563 0002394 320.2501 275.2600  1.00269493 17965"
    }
]